OBJECT_NAME,OBJECT_ID,EPOCH,MEAN_MOTION,ECCENTRICITY,INCLINATION,RA_OF_ASC_NODE,ARG_OF_PERICENTER,MEAN_ANOMALY,EPHEMERIS_TYPE,CLASSIFICATION_TYPE,NORAD_CAT_ID,ELEMENT_SET_NO,REV_AT_EPOCH,BSTAR,MEAN_MOTION_DOT,MEAN_MOTION_DDOT
SITRO-AIS 12 (SMIRENNIY),2023-091AQ,2026-07-14T04:27:33.344640,15.39386341,.0004752,97.5086,266.5831,338.4922,21.6123,0,U,57204,999,16892,.31377E-3,.12193E-3,0
SITRO-AIS 11 (SHEFFER),2023-091AU,2026-07-14T04:35:55.233600,15.39829206,.0004664,97.5083,266.8529,338.0743,22.0302,0,U,57208,999,16894,.31711E-3,.12504E-3,0
H2SAT (HEINRICH HERTZ),2023-093A,2026-07-14T03:09:17.134848,1.00269980,.0000382,0.0212,98.1564,50.2470,191.6036,0,U,57213,999,1118,0,-.5E-7,0
KUZGTU 1 (RS47S),2023-091AV,2026-07-14T02:34:37.981920,15.30456024,.0010173,97.5054,259.8702,10.1572,349.9872,0,U,57217,999,16849,.25571E-3,.7464E-4,0
QIANKUN-1,2023-103B,2026-07-09T12:23:52.426464,16.07683835,.0036275,96.1478,233.7894,139.5319,220.8675,0,U,57422,999,17088,.17456964E-4,.14836E-3,.1743906E-5
FENGYUN 3F,2023-111A,2026-07-14T04:10:14.331936,14.19943328,.0001296,98.6826,264.6782,76.6771,283.4550,0,U,57490,999,15269,.2662E-4,.13E-6,0
HJ-2F,2023-116A,2026-07-14T04:46:24.589344,15.22686819,.0006701,97.3843,199.9540,316.8943,43.1769,0,U,57519,999,16286,.18079E-3,.4144E-4,0
XRISM,2023-137A,2026-07-14T02:44:59.360352,15.12664469,.0007907,31.0007,185.1463,235.5039,124.4854,0,U,57800,999,15694,.10463E-3,.1975E-4,0
METEOR-M2 4,2024-039A,2026-07-14T04:40:25.877280,14.22432080,.0008251,98.7025,154.1554,91.2500,268.9623,0,U,59051,999,12310,.1179E-4,-.18E-6,0
GRBBETA,2024-128C,2026-07-14T03:56:15.768960,15.06804555,.0037194,61.9897,121.6054,140.4046,219.9774,0,U,60237,999,11033,.13324E-3,.1802E-4,0
TRANSPORTER-11 OBJECT A,2024-149A,2026-07-14T04:11:30.031296,15.33329403,.0004865,97.3731,275.0268,119.0335,241.1395,0,U,60468,999,10619,.15875E-3,.5035E-4,0
WARATAH SEED-1,2024-149B,2026-07-14T04:58:07.063680,15.36602938,.0003142,97.3690,275.8177,122.2082,237.9467,0,U,60469,999,10626,.21741E-3,.7688E-4,0
PHISAT 2,2024-149C,2026-07-14T04:00:29.306304,15.31411955,.0003091,97.3756,274.2377,123.6256,236.5280,0,U,60470,999,10612,.14536E-3,.4332E-4,0
LEMUR-2-TOMATOKECHUP,2024-149D,2026-07-14T04:52:01.170048,15.36570045,.0003239,97.3801,277.3271,124.9206,235.2343,0,U,60471,999,10631,.17641E-3,.6215E-4,0
CONNECTA IOT-1,2024-149E,2026-07-14T00:32:09.991104,15.23736633,.0002708,97.3755,270.8624,144.9762,215.1653,0,U,60472,999,10588,.10031E-3,.234E-4,0
LOPEN,2024-149F,2026-07-14T03:49:52.038912,15.40444665,.0002709,97.3779,278.7514,135.6051,224.5413,0,U,60473,999,10641,.22911E-3,.9192E-4,0
ROCK,2024-149G,2026-07-14T03:30:45.302688,15.40432774,.0003012,97.3778,278.7516,133.1778,226.9720,0,U,60474,999,10641,.22201E-3,.8901E-4,0
CONNECTA IOT-3,2024-149H,2026-07-14T04:11:45.352608,15.23751091,.0003839,97.3730,270.7570,145.4601,214.6887,0,U,60475,999,10591,.10095E-3,.2357E-4,0
QUBE,2024-149J,2026-07-13T17:51:30.678048,15.48457636,.0003319,97.3778,281.7123,131.5701,228.5834,0,U,60476,999,10657,.2916E-3,.15401E-3,0
WREN-1,2024-149L,2026-07-13T19:17:48.910848,15.42589287,.0005213,97.3770,279.2141,154.5799,205.5706,0,U,60478,999,10642,.29513E-3,.12753E-3,0
TOMORROW-S1,2024-149M,2026-07-14T03:52:22.229760,15.33083311,.0003947,97.3750,275.5538,133.0412,227.1161,0,U,60479,999,10622,.13917E-3,.4369E-4,0
FLOCK 4BE-18,2024-149N,2026-07-14T04:49:24.334176,15.42695739,.0005052,97.3735,279.2278,147.6731,212.4827,0,U,60480,999,10647,.19085E-3,.8241E-4,0
FLOCK 4BE-7,2024-149P,2026-07-14T04:02:31.725600,15.41426673,.0004178,97.3761,278.4868,150.9602,209.1878,0,U,60481,999,10640,.32834E-3,.13657E-3,0
TOMORROW-S2,2024-149T,2026-07-14T04:35:18.128256,15.33131975,.0003759,97.3818,276.0988,151.9164,208.2282,0,U,60485,999,10622,.14329E-3,.4507E-4,0
FLOCK 4BE-36,2024-149U,2026-07-14T03:47:30.526944,15.43518842,.0004621,97.3747,279.9234,155.3129,204.8341,0,U,60486,999,10651,.23245E-3,.10341E-3,0
FLOCK 4BE-25,2024-149V,2026-07-14T04:44:40.390944,15.39528787,.0003557,97.3800,278.5429,144.9107,215.2373,0,U,60487,999,10639,.23328E-3,.9083E-4,0
FLOCK 4BE-31,2024-149W,2026-07-14T03:54:33.332256,15.45129418,.0003667,97.3802,280.8681,154.0087,206.1346,0,U,60488,999,10654,.28972E-3,.13638E-3,0
FLOCK 4BE-20,2024-149X,2026-07-14T04:11:03.153120,15.38793694,.0004928,97.3697,277.3306,156.0910,204.0565,0,U,60489,999,10636,.23274E-3,.8847E-4,0
