SITRO-AIS 12 (SMIRENNIY)
1 57204U 23091AQ  26195.18580260  .00012193  00000+0  31377-3 0  9995
2 57204  97.5086 266.5831 0004752 338.4922  21.6123 15.39386341168929
SITRO-AIS 11 (SHEFFER)  
1 57208U 23091AU  26195.19161150  .00012504  00000+0  31711-3 0  9991
2 57208  97.5083 266.8529 0004664 338.0743  22.0302 15.39829206168944
H2SAT (HEINRICH HERTZ)  
1 57213U 23093A   26195.13144832 -.00000005  00000+0  00000+0 0  9998
2 57213   0.0212  98.1564 0000382  50.2470 191.6036  1.00269980 11181
KUZGTU 1 (RS47S)        
1 57217U 23091AV  26195.10738405  .00007464  00000+0  25571-3 0  9991
2 57217  97.5054 259.8702 0010173  10.1572 349.9872 15.30456024168495
QIANKUN-1               
1 57422U 23103B   26190.51657901  .00014836  17439-5  17457-4 0  9990
2 57422  96.1478 233.7894 0036275 139.5319 220.8675 16.07683835170888
FENGYUN 3F              
1 57490U 23111A   26195.17377699  .00000013  00000+0  26620-4 0  9998
2 57490  98.6826 264.6782 0001296  76.6771 283.4550 14.19943328152697
HJ-2F                   
1 57519U 23116A   26195.19889571  .00004144  00000+0  18079-3 0  9991
2 57519  97.3843 199.9540 0006701 316.8943  43.1769 15.22686819162869
XRISM                   
1 57800U 23137A   26195.11457593  .00001975  00000+0  10463-3 0  9992
2 57800  31.0007 185.1463 0007907 235.5039 124.4854 15.12664469156948
METEOR-M2 4             
1 59051U 24039A   26195.19474395 -.00000018  00000+0  11790-4 0  9994
2 59051  98.7025 154.1554 0008251  91.2500 268.9623 14.22432080123100
GRBBETA                 
1 60237U 24128C   26195.16407140  .00001802  00000+0  13324-3 0  9997
2 60237  61.9897 121.6054 0037194 140.4046 219.9774 15.06804555110338
TRANSPORTER-11 OBJECT A 
1 60468U 24149A   26195.17465314  .00005035  00000+0  15875-3 0  9999
2 60468  97.3731 275.0268 0004865 119.0335 241.1395 15.33329403106196
WARATAH SEED-1          
1 60469U 24149B   26195.20702620  .00007688  00000+0  21741-3 0  9993
2 60469  97.3690 275.8177 0003142 122.2082 237.9467 15.36602938106261
PHISAT 2                
1 60470U 24149C   26195.16700586  .00004332  00000+0  14536-3 0  9996
2 60470  97.3756 274.2377 0003091 123.6256 236.5280 15.31411955106127
LEMUR-2-TOMATOKECHUP    
1 60471U 24149D   26195.20279132  .00006215  00000+0  17641-3 0  9992
2 60471  97.3801 277.3271 0003239 124.9206 235.2343 15.36570045106317
CONNECTA IOT-1          
1 60472U 24149E   26195.02233786  .00002340  00000+0  10031-3 0  9999
2 60472  97.3755 270.8624 0002708 144.9762 215.1653 15.23736633105880
LOPEN                   
1 60473U 24149F   26195.15963008  .00009192  00000+0  22911-3 0  9993
2 60473  97.3779 278.7514 0002709 135.6051 224.5413 15.40444665106419
ROCK                    
1 60474U 24149G   26195.14635767  .00008901  00000+0  22201-3 0  9990
2 60474  97.3778 278.7516 0003012 133.1778 226.9720 15.40432774106413
CONNECTA IOT-3          
1 60475U 24149H   26195.17483047  .00002357  00000+0  10095-3 0  9993
2 60475  97.3730 270.7570 0003839 145.4601 214.6887 15.23751091105911
QUBE                    
1 60476U 24149J   26194.74410507  .00015401  00000+0  29160-3 0  9994
2 60476  97.3778 281.7123 0003319 131.5701 228.5834 15.48457636106574
WREN-1                  
1 60478U 24149L   26194.80403832  .00012753  00000+0  29513-3 0  9995
2 60478  97.3770 279.2141 0005213 154.5799 205.5706 15.42589287106426
TOMORROW-S1             
1 60479U 24149M   26195.16136840  .00004369  00000+0  13917-3 0  9993
2 60479  97.3750 275.5538 0003947 133.0412 227.1161 15.33083311106220
FLOCK 4BE-18            
1 60480U 24149N   26195.20097609  .00008241  00000+0  19085-3 0  9994
2 60480  97.3735 279.2278 0005052 147.6731 212.4827 15.42695739106477
FLOCK 4BE-7             
1 60481U 24149P   26195.16842275  .00013657  00000+0  32834-3 0  9991
2 60481  97.3761 278.4868 0004178 150.9602 209.1878 15.41426673106405
TOMORROW-S2             
1 60485U 24149T   26195.19118204  .00004507  00000+0  14329-3 0  9999
2 60485  97.3818 276.0988 0003759 151.9164 208.2282 15.33131975106225
FLOCK 4BE-36            
1 60486U 24149U   26195.15799221  .00010341  00000+0  23245-3 0  9990
2 60486  97.3747 279.9234 0004621 155.3129 204.8341 15.43518842106514
FLOCK 4BE-25            
1 60487U 24149V   26195.19768971  .00009083  00000+0  23328-3 0  9996
2 60487  97.3800 278.5429 0003557 144.9107 215.2373 15.39528787106394
FLOCK 4BE-31            
1 60488U 24149W   26195.16288579  .00013638  00000+0  28972-3 0  9996
2 60488  97.3802 280.8681 0003667 154.0087 206.1346 15.45129418106545
FLOCK 4BE-20            
1 60489U 24149X   26195.17434205  .00008847  00000+0  23274-3 0  9993
2 60489  97.3697 277.3306 0004928 156.0910 204.0565 15.38793694106366
